[{"OBJECT_NAME":"STARLINK-5161","OBJECT_ID":"2022-141G","EPOCH":"2026-03-09T05:10:28.257312","MEAN_MOTION":15.08845421,"ECCENTRICITY":0.00013705,"INCLINATION":53.2184,"RA_OF_ASC_NODE":6.4168,"ARG_OF_PERICENTER":91.0505,"MEAN_ANOMALY":269.0644,"EPHEMERIS_TYPE":0,"CLASSIFICATION_TYPE":"U","NORAD_CAT_ID":54163,"ELEMENT_SET_NO":999,"REV_AT_EPOCH":18578,"BSTAR":3.7041263e-5,"MEAN_MOTION_DOT":3.02e-6,"MEAN_MOTION_DDOT":0},{"OBJECT_NAME":"MUSAT-2","OBJECT_ID":"2024-043B","EPOCH":"2026-03-09T22:04:01.255008","MEAN_MOTION":15.07177436,"ECCENTRICITY":0.0006495,"INCLINATION":97.8438,"RA_OF_ASC_NODE":205.4399,"ARG_OF_PERICENTER":314.3478,"MEAN_ANOMALY":45.7216,"EPHEMERIS_TYPE":0,"CLASSIFICATION_TYPE":"U","NORAD_CAT_ID":59099,"ELEMENT_SET_NO":999,"REV_AT_EPOCH":11013,"BSTAR":0.00067214198,"MEAN_MOTION_DOT":0.00010059,"MEAN_MOTION_DDOT":0}]
